KUIPER-00438            
1 68940U 26098X   26194.50001156 -.00083728  00000+0 -43107-2 0  9998
2 68940  51.8862 302.1668 0005328 297.0301 344.4204 15.16207486  5696
KUIPER-00439            
1 68941U 26098Y   26194.50001156 -.01873765  00000+0 -93173-1 0  9995
2 68941  51.8832 302.2928 0004447 279.9609 333.0103 15.20452451  3975
KUIPER-00440            
1 68942U 26098Z   26194.47034367  .00010608  00000+0  35521-3 0  9993
2 68942  51.8796 301.9016 0002544 294.4208  65.6511 15.31481791 11377
KUIPER-00442            
1 68943U 26098AA  26194.49069166  .00013616  00000+0  41158-3 0  9996
2 68943  51.8794 301.3066 0003393 259.2633 100.7971 15.34510121 11384
KUIPER-00446            
1 68944U 26098AB  26194.50001156 -.01386463  00000+0 -53719-1 0  9994
2 68944  51.8781 301.4668 0004849 231.5867  58.9711 15.28797791  5156
KUIPER-00451            
1 68945U 26098AC  26194.50001156 -.00088233  00000+0 -94337-2 0  9990
2 68945  51.8974 306.8023 0007832 251.0904 208.2656 14.88743776  5864
KUIPER-00452            
1 68946U 26098AD  26194.49181541  .00016118  00000+0  46086-3 0  9996
2 68946  51.8757 300.5533 0002668 257.8487 102.2200 15.36120925 11395
KUIPER-00453            
1 68947U 26098AE  26194.45098661  .00010405  00000+0  28873-3 0  9990
2 68947  51.8758 300.2959 0003363 321.1778  38.8967 15.37482928 11396
KUIPER-00454            
1 68948U 26098AF  26194.50001156 -.00094682  00000+0 -11957-1 0  9994
2 68948  51.8999 307.9245 0005883 211.0640 144.3154 14.81992395  5701
KUIPER-00455            
1 68949U 26098AG  26194.50001156 -.00076333  00000+0 -78924-2 0  9996
2 68949  51.8957 307.0292 0014962 237.1454 256.6218 14.89935954  5130
KUIPER-00458            
1 68950U 26098AH  26194.47860685  .00012147  00000+0  34269-3 0  9990
2 68950  51.8780 300.4853 0002981 289.7773  70.2892 15.36798315 11395
KUIPER-00282            
1 69267U 26118A   26194.50001156 -.00061289  00000+0 -29550-2 0  9998
2 69267  51.8726 287.3488 0011533 297.2487 331.6536 15.18282373  5915
KUIPER-00383            
1 69268U 26118B   26194.47566860  .00001457  00000+0  57142-4 0  9992
2 69268  51.8575 287.0542 0010486 287.6907  72.2933 15.32671720  8019
KUIPER-00527            
1 69269U 26118C   26194.50001156 -.01675505  00000+0 -62229-1 0  9992
2 69269  51.8671 286.8126 0008916 281.7736 267.7598 15.30192724  5602
KUIPER-00562            
1 69270U 26118D   26194.49477979  .00015760  00000+0  42369-3 0  9995
2 69270  51.8725 285.7492 0000888  12.4475 347.6534 15.38060863  8031
KUIPER-00570            
1 69271U 26118E   26194.50001156 -.00052583  00000+0 -36728-2 0  9995
2 69271  51.8808 288.3331 0008147 304.6198 157.2579 15.04950800  5436
