{"fetched_at":"2026-07-13T18:16:29.920Z","source":"https://celestrak.org/NORAD/elements/gp.php?GROUP=kuiper&FORMAT=JSON","constellation":"kuiper","records":[{"OBJECT_NAME":"KUIPER-00438","OBJECT_ID":"2026-098X","EPOCH":"2026-07-13T12:00:00.998784","CLASSIFICATION_TYPE":"U","MEAN_MOTION":15.16207486,"ECCENTRICITY":0.0005328,"INCLINATION":51.8862,"RA_OF_ASC_NODE":302.1668,"ARG_OF_PERICENTER":297.0301,"MEAN_ANOMALY":344.4204,"EPHEMERIS_TYPE":0,"NORAD_CAT_ID":68940,"ELEMENT_SET_NO":999,"REV_AT_EPOCH":569,"BSTAR":-0.0043107,"MEAN_MOTION_DOT":-0.00083728,"MEAN_MOTION_DDOT":0},{"OBJECT_NAME":"KUIPER-00439","OBJECT_ID":"2026-098Y","EPOCH":"2026-07-13T12:00:00.998784","CLASSIFICATION_TYPE":"U","MEAN_MOTION":15.20452451,"ECCENTRICITY":0.0004447,"INCLINATION":51.8832,"RA_OF_ASC_NODE":302.2928,"ARG_OF_PERICENTER":279.9609,"MEAN_ANOMALY":333.0103,"EPHEMERIS_TYPE":0,"NORAD_CAT_ID":68941,"ELEMENT_SET_NO":999,"REV_AT_EPOCH":397,"BSTAR":-0.093173,"MEAN_MOTION_DOT":-0.01873765,"MEAN_MOTION_DDOT":0},{"OBJECT_NAME":"KUIPER-00440","OBJECT_ID":"2026-098Z","EPOCH":"2026-07-13T11:17:17.693088","CLASSIFICATION_TYPE":"U","MEAN_MOTION":15.31481791,"ECCENTRICITY":0.0002544,"INCLINATION":51.8796,"RA_OF_ASC_NODE":301.9016,"ARG_OF_PERICENTER":294.4208,"MEAN_ANOMALY":65.6511,"EPHEMERIS_TYPE":0,"NORAD_CAT_ID":68942,"ELEMENT_SET_NO":999,"REV_AT_EPOCH":1137,"BSTAR":0.00035521,"MEAN_MOTION_DOT":0.00010608,"MEAN_MOTION_DDOT":0},{"OBJECT_NAME":"KUIPER-00442","OBJECT_ID":"2026-098AA","EPOCH":"2026-07-13T11:46:35.759424","CLASSIFICATION_TYPE":"U","MEAN_MOTION":15.34510121,"ECCENTRICITY":0.0003393,"INCLINATION":51.8794,"RA_OF_ASC_NODE":301.3066,"ARG_OF_PERICENTER":259.2633,"MEAN_ANOMALY":100.7971,"EPHEMERIS_TYPE":0,"NORAD_CAT_ID":68943,"ELEMENT_SET_NO":999,"REV_AT_EPOCH":1138,"BSTAR":0.00041158,"MEAN_MOTION_DOT":0.00013616,"MEAN_MOTION_DDOT":0},{"OBJECT_NAME":"KUIPER-00446","OBJECT_ID":"2026-098AB","EPOCH":"2026-07-13T12:00:00.998784","CLASSIFICATION_TYPE":"U","MEAN_MOTION":15.28797791,"ECCENTRICITY":0.0004849,"INCLINATION":51.8781,"RA_OF_ASC_NODE":301.4668,"ARG_OF_PERICENTER":231.5867,"MEAN_ANOMALY":58.9711,"EPHEMERIS_TYPE":0,"NORAD_CAT_ID":68944,"ELEMENT_SET_NO":999,"REV_AT_EPOCH":515,"BSTAR":-0.053719,"MEAN_MOTION_DOT":-0.01386463,"MEAN_MOTION_DDOT":0},{"OBJECT_NAME":"KUIPER-00451","OBJECT_ID":"2026-098AC","EPOCH":"2026-07-13T12:00:00.998784","CLASSIFICATION_TYPE":"U","MEAN_MOTION":14.88743776,"ECCENTRICITY":0.0007832,"INCLINATION":51.8974,"RA_OF_ASC_NODE":306.8023,"ARG_OF_PERICENTER":251.0904,"MEAN_ANOMALY":208.2656,"EPHEMERIS_TYPE":0,"NORAD_CAT_ID":68945,"ELEMENT_SET_NO":999,"REV_AT_EPOCH":586,"BSTAR":-0.0094337,"MEAN_MOTION_DOT":-0.00088233,"MEAN_MOTION_DDOT":0},{"OBJECT_NAME":"KUIPER-00452","OBJECT_ID":"2026-098AD","EPOCH":"2026-07-13T11:48:12.851424","CLASSIFICATION_TYPE":"U","MEAN_MOTION":15.36120925,"ECCENTRICITY":0.0002668,"INCLINATION":51.8757,"RA_OF_ASC_NODE":300.5533,"ARG_OF_PERICENTER":257.8487,"MEAN_ANOMALY":102.22,"EPHEMERIS_TYPE":0,"NORAD_CAT_ID":68946,"ELEMENT_SET_NO":999,"REV_AT_EPOCH":1139,"BSTAR":0.00046086,"MEAN_MOTION_DOT":0.00016118,"MEAN_MOTION_DDOT":0},{"OBJECT_NAME":"KUIPER-00453","OBJECT_ID":"2026-098AE","EPOCH":"2026-07-13T10:49:25.243104","CLASSIFICATION_TYPE":"U","MEAN_MOTION":15.37482928,"ECCENTRICITY":0.0003363,"INCLINATION":51.8758,"RA_OF_ASC_NODE":300.2959,"ARG_OF_PERICENTER":321.1778,"MEAN_ANOMALY":38.8967,"EPHEMERIS_TYPE":0,"NORAD_CAT_ID":68947,"ELEMENT_SET_NO":999,"REV_AT_EPOCH":1139,"BSTAR":0.00028873,"MEAN_MOTION_DOT":0.00010405,"MEAN_MOTION_DDOT":0},{"OBJECT_NAME":"KUIPER-00454","OBJECT_ID":"2026-098AF","EPOCH":"2026-07-13T12:00:00.998784","CLASSIFICATION_TYPE":"U","MEAN_MOTION":14.81992395,"ECCENTRICITY":0.0005883,"INCLINATION":51.8999,"RA_OF_ASC_NODE":307.9245,"ARG_OF_PERICENTER":211.064,"MEAN_ANOMALY":144.3154,"EPHEMERIS_TYPE":0,"NORAD_CAT_ID":68948,"ELEMENT_SET_NO":999,"REV_AT_EPOCH":570,"BSTAR":-0.011957,"MEAN_MOTION_DOT":-0.00094682,"MEAN_MOTION_DDOT":0},{"OBJECT_NAME":"KUIPER-00455","OBJECT_ID":"2026-098AG","EPOCH":"2026-07-13T12:00:00.998784","CLASSIFICATION_TYPE":"U","MEAN_MOTION":14.89935954,"ECCENTRICITY":0.0014962,"INCLINATION":51.8957,"RA_OF_ASC_NODE":307.0292,"ARG_OF_PERICENTER":237.1454,"MEAN_ANOMALY":256.6218,"EPHEMERIS_TYPE":0,"NORAD_CAT_ID":68949,"ELEMENT_SET_NO":999,"REV_AT_EPOCH":513,"BSTAR":-0.0078924,"MEAN_MOTION_DOT":-0.00076333,"MEAN_MOTION_DDOT":0},{"OBJECT_NAME":"KUIPER-00458","OBJECT_ID":"2026-098AH","EPOCH":"2026-07-13T11:29:11.631840","CLASSIFICATION_TYPE":"U","MEAN_MOTION":15.36798315,"ECCENTRICITY":0.0002981,"INCLINATION":51.878,"RA_OF_ASC_NODE":300.4853,"ARG_OF_PERICENTER":289.7773,"MEAN_ANOMALY":70.2892,"EPHEMERIS_TYPE":0,"NORAD_CAT_ID":68950,"ELEMENT_SET_NO":999,"REV_AT_EPOCH":1139,"BSTAR":0.00034269,"MEAN_MOTION_DOT":0.00012147,"MEAN_MOTION_DDOT":0},{"OBJECT_NAME":"KUIPER-00282","OBJECT_ID":"2026-118A","EPOCH":"2026-07-13T12:00:00.998784","CLASSIFICATION_TYPE":"U","MEAN_MOTION":15.18282373,"ECCENTRICITY":0.0011533,"INCLINATION":51.8726,"RA_OF_ASC_NODE":287.3488,"ARG_OF_PERICENTER":297.2487,"MEAN_ANOMALY":331.6536,"EPHEMERIS_TYPE":0,"NORAD_CAT_ID":69267,"ELEMENT_SET_NO":999,"REV_AT_EPOCH":591,"BSTAR":-0.002955,"MEAN_MOTION_DOT":-0.00061289,"MEAN_MOTION_DDOT":0},{"OBJECT_NAME":"KUIPER-00383","OBJECT_ID":"2026-118B","EPOCH":"2026-07-13T11:24:57.767040","CLASSIFICATION_TYPE":"U","MEAN_MOTION":15.3267172,"ECCENTRICITY":0.0010486,"INCLINATION":51.8575,"RA_OF_ASC_NODE":287.0542,"ARG_OF_PERICENTER":287.6907,"MEAN_ANOMALY":72.2933,"EPHEMERIS_TYPE":0,"NORAD_CAT_ID":69268,"ELEMENT_SET_NO":999,"REV_AT_EPOCH":801,"BSTAR":0.000057142,"MEAN_MOTION_DOT":0.00001457,"MEAN_MOTION_DDOT":0},{"OBJECT_NAME":"KUIPER-00527","OBJECT_ID":"2026-118C","EPOCH":"2026-07-13T12:00:00.998784","CLASSIFICATION_TYPE":"U","MEAN_MOTION":15.30192724,"ECCENTRICITY":0.0008916,"INCLINATION":51.8671,"RA_OF_ASC_NODE":286.8126,"ARG_OF_PERICENTER":281.7736,"MEAN_ANOMALY":267.7598,"EPHEMERIS_TYPE":0,"NORAD_CAT_ID":69269,"ELEMENT_SET_NO":999,"REV_AT_EPOCH":560,"BSTAR":-0.062229,"MEAN_MOTION_DOT":-0.01675505,"MEAN_MOTION_DDOT":0},{"OBJECT_NAME":"KUIPER-00562","OBJECT_ID":"2026-118D","EPOCH":"2026-07-13T11:52:28.973856","CLASSIFICATION_TYPE":"U","MEAN_MOTION":15.38060863,"ECCENTRICITY":0.0000888,"INCLINATION":51.8725,"RA_OF_ASC_NODE":285.7492,"ARG_OF_PERICENTER":12.4475,"MEAN_ANOMALY":347.6534,"EPHEMERIS_TYPE":0,"NORAD_CAT_ID":69270,"ELEMENT_SET_NO":999,"REV_AT_EPOCH":803,"BSTAR":0.00042369,"MEAN_MOTION_DOT":0.0001576,"MEAN_MOTION_DDOT":0},{"OBJECT_NAME":"KUIPER-00570","OBJECT_ID":"2026-118E","EPOCH":"2026-07-13T12:00:00.998784","CLASSIFICATION_TYPE":"U","MEAN_MOTION":15.049508,"ECCENTRICITY":0.0008147,"INCLINATION":51.8808,"RA_OF_ASC_NODE":288.3331,"ARG_OF_PERICENTER":304.6198,"MEAN_ANOMALY":157.2579,"EPHEMERIS_TYPE":0,"NORAD_CAT_ID":69271,"ELEMENT_SET_NO":999,"REV_AT_EPOCH":543,"BSTAR":-0.0036728,"MEAN_MOTION_DOT":-0.00052583,"MEAN_MOTION_DDOT":0}]}
